BUFENG 1A               
1 44310U 19032A   26068.91906837  .00016103  00000+0  62414-3 0  9992
2 44310  44.9758 238.6688 0005472  55.4463 304.6935 15.26012088372013
STARLINK-31594          
1 59332U 24057N   26068.39651260 -.00006890  00000+0 -24084-3 0  9999
2 59332  43.0042 200.0261 0003285 297.6612  62.3906 15.27601530109667
